{
  "norad_id": 38250,
  "name": "BEIDOU-2 M3",
  "history": [
    {
      "epoch": "2026-03-27T00:49:15.100320Z",
      "apogee_km": 21585.182052869357,
      "perigee_km": 21471.168024404305,
      "latitude_deg": 2.6777752265952206e-05,
      "longitude_deg": 110.87455030509088,
      "height_km": 21519.26044627382,
      "semi_major_axis_km": 27906.312038636832,
      "eccentricity": 0.0020428,
      "inclination_deg": 55.8269,
      "raan_deg": 307.6446,
      "arg_perigee_deg": 279.3138,
      "mean_anomaly_deg": 80.4965,
      "mean_motion_rev_day": 1.86229764
    }
  ]
}